{
  "norad_id": 49336,
  "name": "QZS-1R (MICHIBIKI-1R)",
  "history": [
    {
      "epoch": "2026-03-28T20:31:17.592672",
      "apogee_km": 38942.88580397792,
      "perigee_km": 32624.308257853274,
      "latitude_deg": -26.640339435416518,
      "longitude_deg": -84.31378591968678,
      "semi_major_axis_km": 42161.7340309156,
      "eccentricity": 0.07493261,
      "inclination_deg": 37.2973,
      "raan_deg": 80.7659,
      "arg_perigee_deg": 270.2513,
      "mean_anomaly_deg": 278.3326,
      "mean_motion_rev_day": 1.0028248
    }
  ]
}